STARLINK-31816          
1 59742U 24090N   26189.38119826  .00000562  00000+0  29956-4 0  9993
2 59742  42.9992 222.2726 0000996 276.2065  83.8673 15.27573728121870
STARLINK-31809          
1 59743U 24090P   26189.41031119  .00002893  00000+0  11465-3 0  9990
2 59743  43.0013 214.7321 0001507 259.7428 100.3253 15.27564876121987
STARLINK-31779          
1 59744U 24090Q   26189.40031918  .00000953  00000+0  44192-4 0  9996
2 59744  42.9920 221.5663 0003987 154.0813 206.0238 15.27574310121900
STARLINK-31805          
1 59745U 24090R   26189.58492740  .00002036  00000+0  83459-4 0  9993
2 59745  42.9998 220.3848 0001471 268.5737  91.4946 15.27592070121938
STARLINK-31681          
1 59746U 24090S   26189.54494488  .00005029  00000+0  19219-3 0  9998
2 59746  42.9997 214.0247 0001314 273.8186  86.2516 15.27570651122009
STARLINK-31636          
1 59747U 24090T   26189.53366537 -.00009009  00000+0 -31803-3 0  9998
2 59747  43.0024 220.8602 0001099 269.6195  90.4530 15.27604994121927
STARLINK-31640          
1 59748U 24090U   26189.15807408  .00003037  00000+0  11990-3 0  9992
2 59748  43.0039 223.2044 0001807 284.3168  75.7483 15.27561567121866
STARLINK-31677          
1 59749U 24090V   26189.37092400  .00000377  00000+0  23212-4 0  9990
2 59749  42.9993 222.2153 0001076 248.1537 111.9200 15.27567866121880
STARLINK-31783          
1 59750U 24090W   26189.37865277  .00001301  00000+0  56821-4 0  9992
2 59750  43.0000 222.2739 0001643 301.3464  58.7227 15.27568127121882
STARLINK-31808          
1 59751U 24090X   26189.38491882  .00009377  00000+0  35010-3 0  9998
2 59751  42.9998 221.4624 0002012 281.7295  78.3331 15.27556198121895
STARLINK-31822          
1 59752U 24090Y   26189.14522855  .00001654  00000+0  69661-4 0  9998
2 59752  43.0007 223.1028 0000627 262.3145  97.7635 15.27556730121855
STARLINK-11118 [DTC]    
1 59754U 24091B   26188.67332251  .00004467  00000+0  41749-4 0  9999
2 59754  53.1584 335.1178 0000839  80.9080 279.2033 15.69685173124353
STARLINK-11132 [DTC]    
1 59755U 24091C   26189.42753771 -.00002828  00000+0 -18487-4 0  9992
2 59755  53.1600 331.2883 0000743 131.9902 228.1179 15.69724030124470
STARLINK-11131 [DTC]    
1 59756U 24091D   26189.42263185  .00000075  00000+0  54843-5 0  9995
2 59756  53.1592 331.2570 0001353  75.9639 284.1529 15.69706470124475
STARLINK-11114 [DTC]    
1 59757U 24091E   26188.71735523  .00002771  00000+0  27709-4 0  9992
2 59757  53.1581 334.6940 0001106 100.9841 259.1302 15.69721111124360
STARLINK-11105 [DTC]    
1 59758U 24091F   26188.71246215  .00005925  00000+0  53764-4 0  9992
2 59758  53.1584 334.6629 0000962  81.1289 278.9837 15.69693035124368
STARLINK-11097 [DTC]    
1 59759U 24091G   26189.59891794 -.00002263  00000+0 -13817-4 0  9997
2 59759  53.1578 330.2126 0001288 125.5451 234.5688 15.69725074124509
STARLINK-11098 [DTC]    
1 59760U 24091H   26189.59401431 -.00001156  00000+0 -46817-5 0  9991
2 59760  53.1577 330.1822 0000979  58.0438 302.0675 15.69722283124509
STARLINK-11117 [DTC]    
1 59761U 24091J   26189.39810454 -.00000077  00000+0  42236-5 0  9990
2 59761  53.1585 331.0901 0000953  67.9988 292.1131 15.69709467124479
STARLINK-11110 [DTC]    
1 59762U 24091K   26189.39319821 -.00002891  00000+0 -19008-4 0  9990
2 59762  53.1587 331.0546 0000513 151.7000 208.4045 15.69724311124475
STARLINK-11104 [DTC]    
1 59763U 24091L   26189.38829419 -.00002579  00000+0 -16430-4 0  9998
2 59763  53.1585 331.0245 0000827  63.1874 296.9229 15.69724188124471
STARLINK-11111 [DTC]    
1 59764U 24091M   26189.50002315  .00140268  00000+0  52595-3 0  9998
2 59764  53.1449 325.9997 0004274 304.2291 330.9310 15.86969185  6048
STARLINK-11106 [DTC]    
1 59765U 24091N   26189.38338849 -.00002969  00000+0 -19651-4 0  9993
2 59765  53.1584 330.9902 0000505 123.5447 236.5620 15.69724366124473
STARLINK-31739          
1 59766U 24091P   26189.24688092  .00004015  00000+0  14773-3 0  9998
2 59766  53.1615 183.9802 0001311 109.8250 250.2892 15.30173254121506
STARLINK-31828          
1 59767U 24091Q   26189.38562849  .00004661  00000+0  16192-3 0  9999
2 59767  53.1584 185.5445 0001128  76.3179 283.7948 15.31690454121495
STARLINK-31826          
1 59768U 24091R   26189.24079542  .00120512  00000+0  20609-2 0  9999
2 59768  53.1518 179.6324 0007762   8.5626 351.5514 15.50371222121568
STARLINK-31830          
1 59769U 24091S   26189.00733499 -.00003729  00000+0 -11394-3 0  9996
2 59769  53.1577 188.1576 0001003  75.8300 284.2813 15.30176836121427
STARLINK-31829          
1 59770U 24091T   26189.25912095  .00002336  00000+0  91037-4 0  9990
2 59770  53.1589 186.8904 0001101  67.4324 292.6794 15.30178066121466
STARLINK-31786          
1 59771U 24091U   26189.40346684  .00002504  00000+0  96695-4 0  9995
2 59771  53.1591 186.3650 0000932  87.9998 272.1110 15.30182616121481
STARLINK-31835          
1 59772U 24091V   26189.25046320  .00007202  00000+0  24359-3 0  9990
2 59772  53.1583 186.1233 0001065  65.2810 294.8303 15.31705128121472
