OBJECT_NAME,OBJECT_ID,EPOCH,MEAN_MOTION,ECCENTRICITY,INCLINATION,RA_OF_ASC_NODE,ARG_OF_PERICENTER,MEAN_ANOMALY,EPHEMERIS_TYPE,CLASSIFICATION_TYPE,NORAD_CAT_ID,ELEMENT_SET_NO,REV_AT_EPOCH,BSTAR,MEAN_MOTION_DOT,MEAN_MOTION_DDOT
STARLINK-31816,2024-090N,2026-07-08T09:08:55.529664,15.27573728,.0000996,42.9992,222.2726,276.2065,83.8673,0,U,59742,999,12187,.29955608E-4,.562E-5,0
STARLINK-31809,2024-090P,2026-07-08T09:50:50.886816,15.27564876,.00015074,43.0013,214.7321,259.7428,100.3253,0,U,59743,999,12198,.11464881E-3,.2893E-4,0
STARLINK-31779,2024-090Q,2026-07-08T09:36:27.577152,15.27574310,.00039871,42.9920,221.5663,154.0813,206.0238,0,U,59744,999,12190,.4419231E-4,.953E-5,0
STARLINK-31805,2024-090R,2026-07-08T14:02:17.727360,15.27592070,.00014711,42.9998,220.3848,268.5737,91.4946,0,U,59745,999,12193,.83458663E-4,.2036E-4,0
STARLINK-31681,2024-090S,2026-07-08T13:04:43.237632,15.27570651,.00013146,42.9997,214.0247,273.8186,86.2516,0,U,59746,999,12200,.19219146E-3,.5029E-4,0
STARLINK-31636,2024-090T,2026-07-08T12:48:28.687968,15.27604994,.0001099,43.0024,220.8602,269.6195,90.4530,0,U,59747,999,12192,-.31802704E-3,-.9009E-4,0
STARLINK-31640,2024-090U,2026-07-08T03:47:37.600512,15.27561567,.00018071,43.0039,223.2044,284.3168,75.7483,0,U,59748,999,12186,.1198977E-3,.3037E-4,0
STARLINK-31677,2024-090V,2026-07-08T08:54:07.833600,15.27567866,.00010764,42.9993,222.2153,248.1537,111.9200,0,U,59749,999,12188,.23211644E-4,.377E-5,0
STARLINK-31783,2024-090W,2026-07-08T09:05:15.599328,15.27568127,.0001643,43.0000,222.2739,301.3464,58.7227,0,U,59750,999,12188,.56821176E-4,.1301E-4,0
STARLINK-31808,2024-090X,2026-07-08T09:14:16.986048,15.27556198,.00020126,42.9998,221.4624,281.7295,78.3331,0,U,59751,999,12189,.35009768E-3,.9377E-4,0
STARLINK-31822,2024-090Y,2026-07-08T03:29:07.746720,15.27556730,.00006279,43.0007,223.1028,262.3145,97.7635,0,U,59752,999,12185,.69660933E-4,.1654E-4,0
STARLINK-11118 [DTC],2024-091B,2026-07-07T16:09:35.064864,15.69685173,.00008391,53.1584,335.1178,80.9080,279.2033,0,U,59754,999,12435,.41748997E-4,.4467E-4,0
STARLINK-11132 [DTC],2024-091C,2026-07-08T10:15:39.258144,15.69724030,.00007435,53.1600,331.2883,131.9902,228.1179,0,U,59755,999,12447,-.18486767E-4,-.2828E-4,0
STARLINK-11131 [DTC],2024-091D,2026-07-08T10:08:35.391840,15.69706470,.00013533,53.1592,331.2570,75.9639,284.1529,0,U,59756,999,12447,.5484337E-5,.75E-6,0
STARLINK-11114 [DTC],2024-091E,2026-07-07T17:12:59.491872,15.69721111,.00011061,53.1581,334.6940,100.9841,259.1302,0,U,59757,999,12436,.27708783E-4,.2771E-4,0
STARLINK-11105 [DTC],2024-091F,2026-07-07T17:05:56.729760,15.69693035,.00009621,53.1584,334.6629,81.1289,278.9837,0,U,59758,999,12436,.53763855E-4,.5925E-4,0
STARLINK-11097 [DTC],2024-091G,2026-07-08T14:22:26.510016,15.69725074,.00012886,53.1578,330.2126,125.5451,234.5688,0,U,59759,999,12450,-.13816885E-4,-.2263E-4,0
STARLINK-11098 [DTC],2024-091H,2026-07-08T14:15:22.836384,15.69722283,.00009795,53.1577,330.1822,58.0438,302.0675,0,U,59760,999,12450,-.468165E-5,-.1156E-4,0
STARLINK-11117 [DTC],2024-091J,2026-07-08T09:33:16.232256,15.69709467,.00009531,53.1585,331.0901,67.9988,292.1131,0,U,59761,999,12447,.4223621E-5,-.77E-6,0
STARLINK-11110 [DTC],2024-091K,2026-07-08T09:26:12.325344,15.69724311,.00005134,53.1587,331.0546,151.7000,208.4045,0,U,59762,999,12447,-.19008074E-4,-.2891E-4,0
STARLINK-11104 [DTC],2024-091L,2026-07-08T09:19:08.618016,15.69724188,.0000827,53.1585,331.0245,63.1874,296.9229,0,U,59763,999,12447,-.16429522E-4,-.2579E-4,0
STARLINK-11111 [DTC],2024-091M,2026-07-08T12:00:02.000160,15.86969185,.00042746,53.1449,325.9997,304.2291,330.9310,0,U,59764,999,604,.52595132E-3,.140268E-2,0
STARLINK-11106 [DTC],2024-091N,2026-07-08T09:12:04.765536,15.69724366,.00005059,53.1584,330.9902,123.5447,236.5620,0,U,59765,999,12447,-.19650967E-4,-.2969E-4,0
STARLINK-31739,2024-091P,2026-07-08T05:55:30.511488,15.30173254,.00013114,53.1615,183.9802,109.8250,250.2892,0,U,59766,999,12150,.14772693E-3,.4015E-4,0
STARLINK-31828,2024-091Q,2026-07-08T09:15:18.301536,15.31690454,.0001128,53.1584,185.5445,76.3179,283.7948,0,U,59767,999,12149,.16191805E-3,.4661E-4,0
STARLINK-31826,2024-091R,2026-07-08T05:46:44.724288,15.50371222,.0007762,53.1518,179.6324,8.5626,351.5514,0,U,59768,999,12156,.20608923E-2,.120512E-2,0
STARLINK-31830,2024-091S,2026-07-08T00:10:33.743136,15.30176836,.00010033,53.1577,188.1576,75.8300,284.2813,0,U,59769,999,12142,-.11393987E-3,-.3729E-4,0
STARLINK-31829,2024-091T,2026-07-08T06:13:08.050080,15.30178066,.00011014,53.1589,186.8904,67.4324,292.6794,0,U,59770,999,12146,.91036912E-4,.2336E-4,0
STARLINK-31786,2024-091U,2026-07-08T09:40:59.534976,15.30182616,.00009322,53.1591,186.3650,87.9998,272.1110,0,U,59771,999,12148,.96694537E-4,.2504E-4,0
STARLINK-31835,2024-091V,2026-07-08T06:00:40.020480,15.31705128,.00010655,53.1583,186.1233,65.2810,294.8303,0,U,59772,999,12147,.24358679E-3,.7202E-4,0
